ONEWEB-0385             
1 49311U 21090AJ  24064.07070992  .00000057  00000+0  10703-3 0  9995
2 49311  87.9125  80.6503 0002263  99.1557 260.9832 13.20771688120885
ONEWEB-0386             
1 49312U 21090AK  24063.55777212  .00000058  00000+0  11094-3 0  9992
2 49312  87.9120  80.7548 0002252  94.8673 265.2717 13.20771510119512
ONEWEB-0387             
1 49313U 21090AL  24064.07227184  .00000117  00000+0  25478-3 0  9996
2 49313  87.9127  80.7070 0001969 104.5939 255.5413 13.20772468120899
ONEWEB-0388             
1 49314U 21090AM  24064.13423136 -.00000004  00000+0 -41996-4 0  9990
2 49314  87.9138 111.2035 0002205  97.6668 262.4715 13.19725490117561
ONEWEB-0389             
1 50469U 21132A   24063.82502291  .00000018  00000+0  14260-4 0  9992
2 50469  87.9263 172.0340 0001957 122.4695 237.6626 13.17648358108073
ONEWEB-0390             
1 50470U 21132B   24063.82660734  .00000142  00000+0  33335-3 0  9992
2 50470  87.9264 172.0415 0001504 117.3910 242.7374 13.17650424108074
ONEWEB-0391             
1 50471U 21132C   24063.82818195  .00000069  00000+0  14368-3 0  9992
2 50471  87.9273 172.0160 0002150 119.0732 241.0615 13.17649445108072
ONEWEB-0392             
1 50472U 21132D   24063.85824061  .00000080  00000+0  17392-3 0  9998
2 50472  87.9258 172.0259 0001879 118.3276 241.8045 13.17650110108118
